norad_id,name,regime,epoch,line1,line2,inclination,eccentricity,mean_motion,raan,arg_pericenter,mean_anomaly
25049,SIRIUS 2 (GE-1E),GEO,04280.85581613,1 25049U 97071A   04280.85581613  .00000033  00000-0  10000-3 0  9467\,2 25049 000.0045 212.2318 0001065 031.7285 084.8166 01.00275213 25290,0.0045,0.0001065,1.00275213,212.2318,31.7285,84.8166
25049,SIRIUS 2 (GE-1E),GEO,04284.86960068,1 25049U 97071A   04284.86960068  .00000037  00000-0  10000-3 0  9472\,2 25049 000.0099 276.0579 0003910 342.8409 078.7898 01.00274720 25332,0.0099,0.000391,1.0027472,276.0579,342.8409,78.7898
25049,SIRIUS 2 (GE-1E),GEO,04287.09459492,1 25049U 97071A   04287.09459492  .00000040  00000-0  10000-3 0  9489\,2 25049 000.0076 244.1639 0000923 004.9780 171.7366 01.00272427 25368,0.0076,9.23e-05,1.00272427,244.1639,4.978,171.7366
25049,SIRIUS 2 (GE-1E),GEO,04290.82483219,1 25049U 97071A   04290.82483219  .00000040  00000-0  10000-3 0  9499\,2 25049 000.0146 243.0226 0000637 356.1142 088.2976 01.00272055 25391,0.0146,6.37e-05,1.00272055,243.0226,356.1142,88.2976
25049,SIRIUS 2 (GE-1E),GEO,04292.93682337,1 25049U 97071A   04292.93682337  .00000033  00000-0  10000-3 0  9509\,2 25049 000.0063 246.2165 0000676 023.6987 099.9171 01.00272460 25422,0.0063,6.76e-05,1.0027246,246.2165,23.6987,99.9171
25049,SIRIUS 2 (GE-1E),GEO,04295.47411262,1 25049U 97071A   04295.47411262  .00000023  00000-0  10000-3 0  9518\,2 25049 000.0040 297.2550 0000729 348.9719 279.5233 01.00272148 25446,0.004,7.29e-05,1.00272148,297.255,348.9719,279.5233
25049,SIRIUS 2 (GE-1E),GEO,04295.99768348,1 25049U 97071A   04295.99768348  .00000022  00000-0  10000-3 0  9525\,2 25049 000.0016 268.7491 0000671 356.4919 129.5232 01.00272965 25459,0.0016,6.71e-05,1.00272965,268.7491,356.4919,129.5232
25049,SIRIUS 2 (GE-1E),GEO,04298.89534936,1 25049U 97071A   04298.89534936  .00000023  00000-0  10000-3 0  9533\,2 25049 000.0138 225.0639 0002004 063.0162 072.6403 01.00267998 25488,0.0138,0.0002004,1.00267998,225.0639,63.0162,72.6403
25049,SIRIUS 2 (GE-1E),GEO,04301.06608219,1 25049U 97071A   04301.06608219  .00000031  00000-0  10000-3 0  9543\,2 25049 000.0183 262.5399 0000665 289.6250 232.1801 01.00272026 25508,0.0183,6.65e-05,1.00272026,262.5399,289.625,232.1801
25049,SIRIUS 2 (GE-1E),GEO,04304.87740163,1 25049U 97071A   04304.87740163  .00000040  00000-0  10000-3 0  9551\,2 25049 000.0160 257.3208 0000495 239.5896 223.2741 01.00272607 25548,0.016,4.95e-05,1.00272607,257.3208,239.5896,223.2741
25049,SIRIUS 2 (GE-1E),GEO,04308.00034145,1 25049U 97071A   04308.00034145  .00000042  00000-0  10000-3 0  9569\,2 25049 000.0085 257.2789 0000495 239.6864 270.5701 01.00273372 25577,0.0085,4.95e-05,1.00273372,257.2789,239.6864,270.5701
25049,SIRIUS 2 (GE-1E),GEO,04311.79289353,1 25049U 97071A   04311.79289353  .00000046  00000-0  10000-3 0  9577\,2 25049 000.0005 259.1081 0001367 341.7478 095.7471 01.00274053 25602,0.0005,0.0001367,1.00274053,259.1081,341.7478,95.7471
25049,SIRIUS 2 (GE-1E),GEO,04316.93421052,1 25049U 97071A   04316.93421052  .00000053  00000-0  10000-3 0  9581\,2 25049 000.0046 252.1876 0001012 046.7473 093.6035 01.00272670 25668,0.0046,0.0001012,1.0027267,252.1876,46.7473,93.6035
25049,SIRIUS 2 (GE-1E),GEO,04319.80159145,1 25049U 97071A   04319.80159145  .00000046  00000-0  10000-3 0  9594\,2 25049 000.0023 309.5011 0001191 000.7427 037.3757 01.00272624 25685,0.0023,0.0001191,1.00272624,309.5011,0.7427,37.3757
25049,SIRIUS 2 (GE-1E),GEO,04323.94431495,1 25049U 97071A   04323.94431495  .00000032  00000-0  10000-3 0  9602\,2 25049 000.0083 121.4125 0001274 185.5629 096.1212 01.00273315 25739,0.0083,0.0001274,1.00273315,121.4125,185.5629,96.1212
25049,SIRIUS 2 (GE-1E),GEO,04325.93646413,1 25049U 97071A   04325.93646413 +.00000032 +00000-0 +10000-3 0 09612\,2 25049 000.0095 253.8439 0001274 053.1643 095.1708 01.00265783025757,0.0095,0.0001274,1.00265783,253.8439,53.1643,95.1708
25049,SIRIUS 2 (GE-1E),GEO,04328.97865163,1 25049U 97071A   04328.97865163  .00000042  00000-0  10000-3 0  9626\,2 25049 000.0082 342.1068 0001263 281.2719 156.9766 01.00269383 25782,0.0082,0.0001263,1.00269383,342.1068,281.2719,156.9766
25049,SIRIUS 2 (GE-1E),GEO,04333.95529484,1 25049U 97071A   04333.95529484  .00000050  00000-0  10000-3 0  9633\,2 25049 000.0159 325.6212 0001646 284.8082 166.4522 01.00273406 25834,0.0159,0.0001646,1.00273406,325.6212,284.8082,166.4522
25049,SIRIUS 2 (GE-1E),GEO,04336.96174523,1 25049U 97071A   04336.96174523  .00000051  00000-0  10000-3 0  9649\,2 25049 000.0069 280.4665 0001380 015.9536 125.7657 01.00273781 25862,0.0069,0.000138,1.00273781,280.4665,15.9536,125.7657
25049,SIRIUS 2 (GE-1E),GEO,04339.91751705,1 25049U 97071A   04339.91751705  .00000055  00000-0  10000-3 0  9655\,2 25049 000.0057 288.1296 0001642 356.1305 124.9251 01.00273222 25893,0.0057,0.0001642,1.00273222,288.1296,356.1305,124.9251
25049,SIRIUS 2 (GE-1E),GEO,04342.77634260,1 25049U 97071A   04342.77634260  .00000060  00000-0  10000-3 0  9666\,2 25049 000.0204 250.2718 0001828 050.7814 060.1152 01.00272213 25928,0.0204,0.0001828,1.00272213,250.2718,50.7814,60.1152
25049,SIRIUS 2 (GE-1E),GEO,04344.92228227,1 25049U 97071A   04344.92228227  .00000059  00000-0  10000-3 0  9676\,2 25049 000.0332 239.9787 0000755 165.7026 010.1506 01.00271748 25942,0.0332,7.55e-05,1.00271748,239.9787,165.7026,10.1506
25049,SIRIUS 2 (GE-1E),GEO,04348.85799289,1 25049U 97071A   04348.85799289  .00000044  00000-0  10000-3 0  9688\,2 25049 000.0224 241.6917 0000205 111.6659 043.2021 01.00272156 25986,0.0224,2.05e-05,1.00272156,241.6917,111.6659,43.2021
25049,SIRIUS 2 (GE-1E),GEO,04349.12902068,1 25049U 97071A   04349.12902068  .00000043  00000-0  10000-3 0  9690\,2 25049 000.0104 280.8082 0000588 032.7546 180.8307 01.00272141 25982,0.0104,5.88e-05,1.00272141,280.8082,32.7546,180.8307
25049,SIRIUS 2 (GE-1E),GEO,04351.93768266,1 25049U 97071A   04351.93768266  .00000036  00000-0  10000-3 0  9706\,2 25049 000.0148 284.2516 0000474 014.8659 129.1659 01.00272440 26013,0.0148,4.74e-05,1.0027244,284.2516,14.8659,129.1659
25049,SIRIUS 2 (GE-1E),GEO,04354.93814227,1 25049U 97071A   04354.93814227  .00000040  00000-0  10000-3 0  9714\,2 25049 000.0164 267.7822 0000140 161.7254 001.8592 01.00270090 26044,0.0164,1.4e-05,1.0027009,267.7822,161.7254,1.8592
25049,SIRIUS 2 (GE-1E),GEO,04357.94570377,1 25049U 97071A   04357.94570377  .00000048  00000-0  10000-3 0  9722\,2 25049 000.0200 256.6547 0000981 168.8061 011.5940 01.00271720 26072,0.02,9.81e-05,1.0027172,256.6547,168.8061,11.594
25049,SIRIUS 2 (GE-1E),GEO,04358.94778704,1 25049U 97071A   04358.94778704  .00000049  00000-0  10000-3 0  9739\,2 25049 000.0176 256.6413 0000981 168.8357 013.3160 01.00271964 26089,0.0176,9.81e-05,1.00271964,256.6413,168.8357,13.316
25049,SIRIUS 2 (GE-1E),GEO,04361.12910881,1 25049U 97071A   04361.12910881  .00000050  00000-0  10000-3 0  9740\,2 25049 000.0080 271.3480 0000981 154.1641 080.6995 01.00272023 26108,0.008,9.81e-05,1.00272023,271.348,154.1641,80.6995
25049,SIRIUS 2 (GE-1E),GEO,04364.94912255,1 25049U 97071A   04364.94912255  .00000050  00000-0  10000-3 0  9751\,2 25049 000.0096 012.2806 0000981 053.2929 019.6055 01.00272182 26146,0.0096,9.81e-05,1.00272182,12.2806,53.2929,19.6055
25049,SIRIUS 2 (GE-1E),GEO,05005.96452317,1 25049U 97071A   05005.96452317  .00000057  00000-0  10000-3 0  9762\,2 25049 000.1323 266.0515 0000494 095.0829 096.5150 01.00272280 26215,0.1323,4.94e-05,1.0027228,266.0515,95.0829,96.515
25049,SIRIUS 2 (GE-1E),GEO,05010.92446169,1 25049U 97071A   05010.92446169  .00000037  00000-0  10000-3 0  9771\,2 25049 000.1218 265.6197 0001023 193.0245 349.4894 01.00272970 26265,0.1218,0.0001023,1.0027297,265.6197,193.0245,349.4894
25049,SIRIUS 2 (GE-1E),GEO,05012.92924550,1 25049U 97071A   05012.92924550  .00000031  00000-0  10000-3 0  9783\,2 25049 000.1176 265.3802 0000805 178.9979 007.4617 01.00273467 26289,0.1176,8.05e-05,1.00273467,265.3802,178.9979,7.4617
25049,SIRIUS 2 (GE-1E),GEO,05016.93061559,1 25049U 97071A   05016.93061559  .00000036  00000-0  10000-3 0  9795\,2 25049 000.1087 264.3748 0000971 166.4444 025.3937 01.00270305 26328,0.1087,9.71e-05,1.00270305,264.3748,166.4444,25.3937
25049,SIRIUS 2 (GE-1E),GEO,05021.94184971,1 25049U 97071A   05021.94184971  .00000042  00000-0  10000-3 0  9805\,2 25049 000.0919 260.0081 0000487 090.0571 115.1214 01.00271834 26378,0.0919,4.87e-05,1.00271834,260.0081,90.0571,115.1214
25049,SIRIUS 2 (GE-1E),GEO,05022.93794199,1 25049U 97071A   05022.93794199  .00000042  00000-0  10000-3 0  9815\,2 25049 000.0871 261.0819 0000645 052.0497 151.6413 01.00272532 26389,0.0871,6.45e-05,1.00272532,261.0819,52.0497,151.6413
25049,SIRIUS 2 (GE-1E),GEO,05023.94064244,1 25049U 97071A   05023.94064244  .00000041  00000-0  10000-3 0  9828\,2 25049 000.0854 260.4403 0000602 070.8436 135.4525 01.00272828 26399,0.0854,6.02e-05,1.00272828,260.4403,70.8436,135.4525
25049,SIRIUS 2 (GE-1E),GEO,05024.94272556,1 25049U 97071A   05024.94272556  .00000041  00000-0  10000-3 0  9837\,2 25049 000.0828 260.2996 0000602 073.0997 135.0809 01.00273149 26402,0.0828,6.02e-05,1.00273149,260.2996,73.0997,135.0809
25049,SIRIUS 2 (GE-1E),GEO,05025.81146413,1 25049U 97071A   05025.81146413  .00000042  00000-0  10000-3 0  9848\,2 25049 000.0770 261.0228 0001002 022.1069 138.9624 01.00273288 26417,0.077,0.0001002,1.00273288,261.0228,22.1069,138.9624
25049,SIRIUS 2 (GE-1E),GEO,05029.80792825,1 25049U 97071A   05029.80792825  .00000047  00000-0  10000-3 0  9851\,2 25049 000.0715 260.7487 0000624 071.7619 092.2574 01.00273899 26457,0.0715,6.24e-05,1.00273899,260.7487,71.7619,92.2574
25049,SIRIUS 2 (GE-1E),GEO,05032.81622108,1 25049U 97071A   05032.81622108  .00000049  00000-0  10000-3 0  9865\,2 25049 000.0662 261.3216 0000624 071.2470 098.1412 01.00273867 26489,0.0662,6.24e-05,1.00273867,261.3216,71.247,98.1412
